{
  "type": "FeatureCollection",
  "features": [
    {
      "type": "Feature",
      "properties": {
        "norad_id": 66927,
        "name": "STARLINK-35943",
        "group": "last-30-days",
        "lat": -36.449449864055254,
        "lon": -127.3115456432171,
        "alt_km": 330.9492341847572,
        "timestamp": "2025-12-18T23:35:47.783162+00:00",
        "meta_object_name": "STARLINK-35943",
        "meta_object_id": "2025-286C",
        "meta_epoch": "2025-12-18T14:00:03.000384",
        "meta_mean_motion": 15.82649653,
        "meta_eccentricity": 0.00010675,
        "meta_inclination": 53.1564,
        "meta_ra_of_asc_node": 21.0668,
        "meta_arg_of_pericenter": 63.7388,
        "meta_mean_anomaly": 45.6025,
        "meta_ephemeris_type": 0,
        "meta_classification_type": "U",
        "meta_norad_cat_id": 66927,
        "meta_element_set_no": 999,
        "meta_rev_at_epoch": 293,
        "meta_bstar": -0.0067084095,
        "meta_mean_motion_dot": -0.01270689,
        "meta_mean_motion_ddot": 0,
        "tle_line1": "1 66927U 25286C   25352.58336806 -.01270689  00000+0 -67084-2 0  9990",
        "tle_line2": "2 66927  53.1564  21.0668 0001067  63.7388  45.6025 15.82649653  2933"
      },
      "geometry": {
        "type": "Point",
        "coordinates": [
          -127.3115456432171,
          -36.449449864055254
        ]
      }
    },
    {
      "type": "Feature",
      "properties": {
        "norad_id": 66928,
        "name": "STARLINK-35944",
        "group": "last-30-days",
        "lat": -33.569714364662225,
        "lon": -131.0902363805777,
        "alt_km": 330.7463879263605,
        "timestamp": "2025-12-18T23:35:47.783173+00:00",
        "meta_object_name": "STARLINK-35944",
        "meta_object_id": "2025-286D",
        "meta_epoch": "2025-12-18T14:00:03.000384",
        "meta_mean_motion": 15.82641162,
        "meta_eccentricity": 0.00010108,
        "meta_inclination": 53.1563,
        "meta_ra_of_asc_node": 21.0753,
        "meta_arg_of_pericenter": 60.8028,
        "meta_mean_anomaly": 44.3066,
        "meta_ephemeris_type": 0,
        "meta_classification_type": "U",
        "meta_norad_cat_id": 66928,
        "meta_element_set_no": 999,
        "meta_rev_at_epoch": 293,
        "meta_bstar": -0.0066550597,
        "meta_mean_motion_dot": -0.01261284,
        "meta_mean_motion_ddot": 0,
        "tle_line1": "1 66928U 25286D   25352.58336806 -.01261284  00000+0 -66551-2 0  9990",
        "tle_line2": "2 66928  53.1563  21.0753 0001010  60.8028  44.3066 15.82641162  2933"
      },
      "geometry": {
        "type": "Point",
        "coordinates": [
          -131.0902363805777,
          -33.569714364662225
        ]
      }
    },
    {
      "type": "Feature",
      "properties": {
        "norad_id": 66929,
        "name": "STARLINK-36169",
        "group": "last-30-days",
        "lat": -37.91432686562101,
        "lon": -125.21153120591028,
        "alt_km": 331.0885630669045,
        "timestamp": "2025-12-18T23:35:47.783184+00:00",
        "meta_object_name": "STARLINK-36169",
        "meta_object_id": "2025-286E",
        "meta_epoch": "2025-12-18T14:00:03.000384",
        "meta_mean_motion": 15.8264626,
        "meta_eccentricity": 0.00010676,
        "meta_inclination": 53.1563,
        "meta_ra_of_asc_node": 21.0619,
        "meta_arg_of_pericenter": 52.0484,
        "meta_mean_anomaly": 59.5331,
        "meta_ephemeris_type": 0,
        "meta_classification_type": "U",
        "meta_norad_cat_id": 66929,
        "meta_element_set_no": 999,
        "meta_rev_at_epoch": 293,
        "meta_bstar": -0.0067345551,
        "meta_mean_motion_dot": -0.01274874,
        "meta_mean_motion_ddot": 0,
        "tle_line1": "1 66929U 25286E   25352.58336806 -.01274874  00000+0 -67346-2 0  9993",
        "tle_line2": "2 66929  53.1563  21.0619 0001067  52.0484  59.5331 15.82646260  2933"
      },
      "geometry": {
        "type": "Point",
        "coordinates": [
          -125.21153120591028,
          -37.91432686562101
        ]
      }
    },
    {
      "type": "Feature",
      "properties": {
        "norad_id": 66930,
        "name": "STARLINK-36206",
        "group": "last-30-days",
        "lat": -39.237783202320756,
        "lon": -123.18896544682697,
        "alt_km": 331.0692515298697,
        "timestamp": "2025-12-18T23:35:47.783194+00:00",
        "meta_object_name": "STARLINK-36206",
        "meta_object_id": "2025-286F",
        "meta_epoch": "2025-12-18T14:00:03.000384",
        "meta_mean_motion": 15.82656891,
        "meta_eccentricity": 9.205e-05,
        "meta_inclination": 53.1561,
        "meta_ra_of_asc_node": 21.0574,
        "meta_arg_of_pericenter": 71.5911,
        "meta_mean_anomaly": 42.0511,
        "meta_ephemeris_type": 0,
        "meta_classification_type": "U",
        "meta_norad_cat_id": 66930,
        "meta_element_set_no": 999,
        "meta_rev_at_epoch": 293,
        "meta_bstar": -0.0067996046,
        "meta_mean_motion_dot": -0.01286202,
        "meta_mean_motion_ddot": 0,
        "tle_line1": "1 66930U 25286F   25352.58336806 -.01286202  00000+0 -67996-2 0  9994",
        "tle_line2": "2 66930  53.1561  21.0574 0000920  71.5911  42.0511 15.82656891  2939"
      },
      "geometry": {
        "type": "Point",
        "coordinates": [
          -123.18896544682697,
          -39.237783202320756
        ]
      }
    },
    {
      "type": "Feature",
      "properties": {
        "norad_id": 66931,
        "name": "STARLINK-36130",
        "group": "last-30-days",
        "lat": -40.65207630237727,
        "lon": -120.8740915599633,
        "alt_km": 331.2008369912046,
        "timestamp": "2025-12-18T23:35:47.783204+00:00",
        "meta_object_name": "STARLINK-36130",
        "meta_object_id": "2025-286G",
        "meta_epoch": "2025-12-18T14:00:03.000384",
        "meta_mean_motion": 15.82648858,
        "meta_eccentricity": 9.716e-05,
        "meta_inclination": 53.1562,
        "meta_ra_of_asc_node": 21.0528,
        "meta_arg_of_pericenter": 66.9503,
        "meta_mean_anomaly": 48.9816,
        "meta_ephemeris_type": 0,
        "meta_classification_type": "U",
        "meta_norad_cat_id": 66931,
        "meta_element_set_no": 999,
        "meta_rev_at_epoch": 293,
        "meta_bstar": -0.00681614,
        "meta_mean_motion_dot": -0.01288551,
        "meta_mean_motion_ddot": 0,
        "tle_line1": "1 66931U 25286G   25352.58336806 -.01288551  00000+0 -68161-2 0  9999",
        "tle_line2": "2 66931  53.1562  21.0528 0000971  66.9503  48.9816 15.82648858  2938"
      },
      "geometry": {
        "type": "Point",
        "coordinates": [
          -120.8740915599633,
          -40.65207630237727
        ]
      }
    },
    {
      "type": "Feature",
      "properties": {
        "norad_id": 66932,
        "name": "STARLINK-36177",
        "group": "last-30-days",
        "lat": -41.99414349517465,
        "lon": -118.50408232120118,
        "alt_km": 331.3312470819692,
        "timestamp": "2025-12-18T23:35:47.783214+00:00",
        "meta_object_name": "STARLINK-36177",
        "meta_object_id": "2025-286H",
        "meta_epoch": "2025-12-18T14:00:03.000384",
        "meta_mean_motion": 15.82651921,
        "meta_eccentricity": 0.00010919,
        "meta_inclination": 53.156,
        "meta_ra_of_asc_node": 21.048,
        "meta_arg_of_pericenter": 61.7267,
        "meta_mean_anomaly": 56.4418,
        "meta_ephemeris_type": 0,
        "meta_classification_type": "U",
        "meta_norad_cat_id": 66932,
        "meta_element_set_no": 999,
        "meta_rev_at_epoch": 293,
        "meta_bstar": -0.0068799835,
        "meta_mean_motion_dot": -0.012994,
        "meta_mean_motion_ddot": 0,
        "tle_line1": "1 66932U 25286H   25352.58336806 -.01299400  00000+0 -68800-2 0  9995",
        "tle_line2": "2 66932  53.1560  21.0480 0001091  61.7267  56.4418 15.82651921  2935"
      },
      "geometry": {
        "type": "Point",
        "coordinates": [
          -118.50408232120118,
          -41.99414349517465
        ]
      }
    },
    {
      "type": "Feature",
      "properties": {
        "norad_id": 66933,
        "name": "STARLINK-36157",
        "group": "last-30-days",
        "lat": -43.268232914902896,
        "lon": -116.06790628022564,
        "alt_km": 331.34720984700743,
        "timestamp": "2025-12-18T23:35:47.783226+00:00",
        "meta_object_name": "STARLINK-36157",
        "meta_object_id": "2025-286J",
        "meta_epoch": "2025-12-18T14:00:03.000384",
        "meta_mean_motion": 15.8264896,
        "meta_eccentricity": 9.687e-05,
        "meta_inclination": 53.1561,
        "meta_ra_of_asc_node": 21.0435,
        "meta_arg_of_pericenter": 69.8954,
        "meta_mean_anomaly": 50.4882,
        "meta_ephemeris_type": 0,
        "meta_classification_type": "U",
        "meta_norad_cat_id": 66933,
        "meta_element_set_no": 999,
        "meta_rev_at_epoch": 293,
        "meta_bstar": -0.0069099593,
        "meta_mean_motion_dot": -0.01304136,
        "meta_mean_motion_ddot": 0,
        "tle_line1": "1 66933U 25286J   25352.58336806 -.01304136  00000+0 -69100-2 0  9993",
        "tle_line2": "2 66933  53.1561  21.0435 0000968  69.8954  50.4882 15.82648960  2939"
      },
      "geometry": {
        "type": "Point",
        "coordinates": [
          -116.06790628022564,
          -43.268232914902896
        ]
      }
    }
  ]
}